{"fetched_at":"2026-03-29T16:36:15Z","count":15609,"tles":[{"name":"FLOCK 4H-10","line1":"1 66713U 25276AZ  26087.73727744  .00007970  00000+0  38563-3 0  9999","line2":"2 66713  97.4239 162.6103 0003009 286.2012  73.8891 15.18849079 18200","category":"Other"}]}