{
  "norad_id": 66713,
  "name": "FLOCK 4H-10",
  "history": [
    {
      "epoch": "2026-03-28T17:41:40.770816",
      "apogee_km": 511.3908253434047,
      "perigee_km": 507.2447153207604,
      "latitude_deg": 4.196535955645879,
      "longitude_deg": -157.92136575980112,
      "semi_major_axis_km": 6887.454770332082,
      "eccentricity": 0.00030099,
      "inclination_deg": 97.4239,
      "raan_deg": 162.6103,
      "arg_perigee_deg": 286.2012,
      "mean_anomaly_deg": 73.8891,
      "mean_motion_rev_day": 15.18849079
    }
  ]
}